{"type":"FeatureCollection","crs":{"type":"name","properties":{"name":"EPSG:4326"}},"features":[
{"type":"Feature","id":1,"geometry":{"type":"Polygon","coordinates":[[[121.913882230349,24.9600001070703],[121.880527284627,24.9309641886081],[121.828327306233,24.8669360034229],[121.818191237123,24.8502731151889],[121.813872378577,24.8350001146843],[121.805254106234,24.7900000226246],[121.799709309141,24.7566641885813],[121.800809182519,24.7452731821264],[121.817209214381,24.6372180448534],[121.821109313491,24.6247181122597],[121.828327305811,24.6144360310087],[121.843600306593,24.6063821956443],[121.849427238534,24.5922181203422],[121.853318285231,24.5636090081493],[121.853045202946,24.5336091714219],[121.839709260261,24.4763820622978],[121.831100207221,24.4708270398657],[121.816672269119,24.4638821297038],[121.803591303663,24.4555540384245],[121.796100229344,24.4483269947714],[121.780545259974,24.4263821653106],[121.776654213425,24.4141642005324],[121.759636267491,24.3308271281797],[121.772491257142,24.3016641398038],[121.753054126208,24.2927731200552],[121.744982354443,24.2863820860767],[121.676091323588,24.2049911242473],[121.659418210043,24.1847181503307],[121.606227154916,24.0831911745257],[121.602618242658,24.0583270964416],[121.609154115913,24.0416642082076],[121.616091313907,24.0341642490259],[121.61136341778,23.9833270001066],[121.596363331729,23.9000001538138],[121.536927255823,23.7013820724375],[121.496372423402,23.4852731382771],[121.476327268362,23.4224180848488],[121.475809267824,23.4147181329458],[121.473309280452,23.4011091076005],[121.453045192401,23.3272181049534],[121.355554270272,23.087500032012],[121.259163389372,22.9000000424966],[121.168054113537,22.7625001165811],[121.137500232334,22.7352731811523],[121.128863351271,22.7280540150758],[121.119136152596,22.72471801776],[121.108318299933,22.722218031054],[121.079436273923,22.7091642232133],[121.030272387526,22.6563822050929],[121.014427238393,22.6349910852021],[120.969709282417,22.5683271271434],[120.955554258411,22.5358271361621],[120.878591287704,22.3413820689376],[120.872754131794,22.3201361235333],[120.871372291307,22.2919451004194],[120.873027213625,22.275000076822],[120.879427300127,22.2325641780225],[120.88471829196,22.0980540778616],[120.88136335217,22.0369449746868],[120.824154179861,21.9277732003103],[120.771858740713,21.9278411771684],[120.719563283052,21.9279091540258],[120.717381086098,21.9288008505651],[120.709018178512,21.93221812283],[120.699009347615,21.9433269948564],[120.686372287354,22.0536090357587],[120.693036235767,22.1044449442916],[120.691091299418,22.1152731888896],[120.677754182251,22.1719360282228],[120.674991340037,22.1819359741104],[120.629436199041,22.2775000644641],[120.620527240617,22.2952732192229],[120.610263432891,22.3127731242926],[120.574572283456,22.3641642493946],[120.553309239018,22.3827730796672],[120.505545131157,22.4225001161737],[120.488591223777,22.4291642322935],[120.478582393178,22.4311091690434],[120.44470022508,22.4533270797092],[120.426091227296,22.4708269847789],[120.416900302119,22.4825001256609],[120.38943615833,22.4784642399345],[120.379563282516,22.4819360234179],[120.343600223445,22.5055540478731],[120.328600305124,22.519445041034],[120.307082282941,22.5404360088696],[120.303700352348,22.5508731546348],[120.327854148037,22.5249450776828],[120.329991365545,22.5361091021052],[120.321927304337,22.5544450187213],[120.312763369776,22.5725001412959],[120.296100313229,22.5969360708522],[120.267909290633,22.6125000923951],[120.253327293268,22.6280540544897],[120.244709189168,22.6402731930419],[120.240254207663,22.6494361220936],[120.238591237909,22.6608271285485],[120.251518311522,22.6823540355421],[120.228672428634,22.736727106015],[120.206382265693,22.7733270217282],[120.199709264631,22.7869450993602],[120.172763290783,22.8816641258806],[120.167482356068,22.9080449931229],[120.163882328045,22.9536090189412],[120.135536240933,23.0227731312538],[120.107754255431,23.0136090284281],[120.064418307125,23.0350001483185],[120.05393623289,23.0443731286042],[120.049145138053,23.0608271393783],[120.055118249538,23.0738821209924],[120.06749128012,23.0791642288322],[120.086927236872,23.0791642288322],[120.097554148907,23.087909068805],[120.092763388903,23.1269360484165],[120.08485422469,23.1336090492743],[120.064845280462,23.1380450879921],[120.057345153566,23.1449911700549],[120.056509310211,23.1559640874303],[120.083327208855,23.2280539874286],[120.099718188823,23.2669359591662],[120.109709249695,23.2869450717123],[120.130000328232,23.3175001259443],[120.14394513351,23.3225000993563],[120.14776342521,23.3947180736219],[120.134718166115,23.4661090904999],[120.12886340766,23.4933271421262],[120.125163300024,23.5087540352428],[120.123872319507,23.5141642182855],[120.11553618206,23.5688821199332],[120.111227212502,23.6170820871092],[120.115536181731,23.6313821170623],[120.194836193591,23.7833270789337],[120.221918290925,23.8194450341108],[120.239700331661,23.8300000299552],[120.278700321249,23.8890731689999],[120.283863404821,23.898327126368],[120.312472349158,23.953326994895],[120.363036181284,24.048336035292],[120.421100306891,24.1411091197738],[120.4272003204,24.1500001395221],[120.471909223416,24.1930450678363],[120.476382311122,24.2102732320867],[120.509282286492,24.2893001627978],[120.544982321529,24.3622180264099],[120.55887230826,24.3852731214596],[120.57166342762,24.4022181441215],[120.57860029073,24.4102731532599],[120.594436220238,24.4279911556231],[120.628591302332,24.4636090475626],[120.642763424301,24.4791641834313],[120.650545184116,24.4938821349154],[120.656645197462,24.5111091253921],[120.665818185243,24.5330539539173],[120.696218173862,24.5986091543211],[120.751391213989,24.6475001251689],[120.862482276386,24.7390269866018],[120.871600278217,24.7399910742873],[120.903318237701,24.8366640898439],[120.921100277787,24.8758270241074],[120.95139130311,24.9233271010006],[120.958700322376,24.933045080009],[121.001663444273,25.0016642018139],[121.009163403916,25.0088910779181],[121.060536255509,25.0486090621381],[121.194700350634,25.1100001321922],[121.223600315134,25.1155539808506],[121.275872377585,25.1189090899013],[121.310527189152,25.1261091451791],[121.338591310268,25.132500178222],[121.363036292618,25.1433270824336],[121.373718189586,25.150973222327],[121.389363347013,25.1582641365015],[121.409418223572,25.1552731379083],[121.418054266307,25.1491642392935],[121.441109194119,25.129100142836],[121.444118297724,25.1347450188752],[121.395818251157,25.1783270601209],[121.396518306517,25.1890180096807],[121.435254267092,25.236664100674],[121.44274517372,25.2438820929764],[121.478318305862,25.270418024733],[121.505416966458,25.2790712429498],[121.515272273635,25.2822180679802],[121.563182394097,25.2836091294829],[121.583327292377,25.2758270340016],[121.598036191565,25.2672181496167],[121.608872316128,25.2591641467038],[121.616927157334,25.2494361091834],[121.636654133815,25.2144359639475],[121.681272345147,25.168664234444],[121.734709325433,25.1388821589784],[121.788600269036,25.126582219106],[121.881654147343,25.1147181377886],[122.000409287331,25.0072180495361],[121.994982339344,24.9952731678347],[121.978318278391,24.9869360233329],[121.969509233621,24.9850360138551],[121.953718290913,24.9789106365407],[121.913882230349,24.9600001070703]]]},"properties":{"OBJECTID":1,"Country":"Taiwan","Shape__Area":31376317344.29492,"Shape__Length":882636.9858383797}}
]}
