{"type":"FeatureCollection","crs":{"type":"name","properties":{"name":"EPSG:4326"}},"features":[
{"type":"Feature","id":1,"geometry":{"type":"Point","coordinates":[41.0148772,42.9965021999999]},"properties":{"OBJECTID":1,"Country":"Abkhazia","ISO_3_Digit_Code":"GEO","RU_House_Address":"Sukhum, General Dbar Street, 3","Lat":42.9965022,"Long":41.0148772,"Source":"https ://rs dot gov.ru/en/kontakty/russian-houses-abroad/represents-with-map/","Russia_House_Handle_or_URL":"https ://t.me/RossotrudnichestvoAbkhazia"}},
{"type":"Feature","id":2,"geometry":{"type":"Point","coordinates":[69.1850584,34.5269502999999]},"properties":{"OBJECTID":2,"Country":"Afghanistan","ISO_3_Digit_Code":"AFG","RU_House_Address":"Kabul, Nahr-Darsan District, First Sector Highway","Lat":34.5269503,"Long":69.1850584,"Source":"https ://rs dot gov.ru/en/kontakty/russian-houses-abroad/represents-with-map/","Russia_House_Handle_or_URL":null}},
{"type":"Feature","id":3,"geometry":{"type":"Point","coordinates":[19.851513042,41.2830081269999]},"properties":{"OBJECTID":3,"Country":"Albania","ISO_3_Digit_Code":"ALB","RU_House_Address":"Tirana, Mjull-Bathore, Rr. Dervish Shaba (Embassy of the Russian Federation)","Lat":41.283008127032026,"Long":19.851513042096514,"Source":"https ://rs dot gov.ru/en/kontakty/russian-houses-abroad/represents-with-map/","Russia_House_Handle_or_URL":"https ://t.me/rusembalb"}},
{"type":"Feature","id":4,"geometry":{"type":"Point","coordinates":[-58.4257190459999,-34.6135105879997]},"properties":{"OBJECTID":4,"Country":"Argentina","ISO_3_Digit_Code":"ARG","RU_House_Address":"Buenos Aires, Rivadavia Avenue, 4266","Lat":-34.61351058814324,"Long":-58.42571904605957,"Source":"https ://rs dot gov.ru/en/kontakty/russian-houses-abroad/represents-with-map/","Russia_House_Handle_or_URL":"https ://t.me/s/CasaRusaEnBuenosAires"}},
{"type":"Feature","id":5,"geometry":{"type":"Point","coordinates":[44.5048867400001,40.1925184140002]},"properties":{"OBJECTID":5,"Country":"Armenia","ISO_3_Digit_Code":"ARM","RU_House_Address":"Yerevan, Marshal Bagramyan Avenue, 34","Lat":40.1925184136634,"Long":44.50488674,"Source":"https ://rs dot gov.ru/en/kontakty/russian-houses-abroad/represents-with-map/","Russia_House_Handle_or_URL":"https ://t.me/s/RSGOVArmenia"}},
{"type":"Feature","id":6,"geometry":{"type":"Point","coordinates":[43.843697725,40.7834334830002]},"properties":{"OBJECTID":6,"Country":"Armenia","ISO_3_Digit_Code":"ARM","RU_House_Address":"Branch, Gyumri, Aragats Street 5/2","Lat":40.78343348290076,"Long":43.8436977253935,"Source":"https ://rs dot gov.ru/en/kontakty/russian-houses-abroad/represents-with-map/","Russia_House_Handle_or_URL":"https ://t.me/s/russkiydomgyumri"}},
{"type":"Feature","id":7,"geometry":{"type":"Point","coordinates":[16.3693122390001,48.1940636140001]},"properties":{"OBJECTID":7,"Country":"Austria","ISO_3_Digit_Code":"AUT","RU_House_Address":"Vienna, Bramsplatz, 8","Lat":48.194063614305655,"Long":16.36931223928398,"Source":"https ://rs dot gov.ru/en/kontakty/russian-houses-abroad/represents-with-map/","Russia_House_Handle_or_URL":"https://t.me/s/RusBotWien_RU"}},
{"type":"Feature","id":8,"geometry":{"type":"Point","coordinates":[90.3890144,23.7643863]},"properties":{"OBJECTID":8,"Country":"Bangladesh","ISO_3_Digit_Code":"BGD","RU_House_Address":"Dhaka, Borca za rodnoy yazyk M.A.Matina Street, Building 42 (510)","Lat":23.7643863,"Long":90.3890144,"Source":"https ://rs dot gov.ru/en/kontakty/russian-houses-abroad/represents-with-map/","Russia_House_Handle_or_URL":"https ://t.me/s/RussianHouseDHK"}},
{"type":"Feature","id":9,"geometry":{"type":"Point","coordinates":[30.996438146,52.453859462]},"properties":{"OBJECTID":9,"Country":"Belarus","ISO_3_Digit_Code":"BLR","RU_House_Address":"Gomel, 50 let BSSR Street, 7-1","Lat":52.453859462293785,"Long":30.996438145577784,"Source":"https ://rs dot gov.ru/en/kontakty/russian-houses-abroad/represents-with-map/","Russia_House_Handle_or_URL":"https ://t.me/s/russiangomel"}},
{"type":"Feature","id":10,"geometry":{"type":"Point","coordinates":[23.7418507150001,52.0966166110001]},"properties":{"OBJECTID":10,"Country":"Belarus","ISO_3_Digit_Code":"BLR","RU_House_Address":"Brest, Moskovskaya Street, 208A/1","Lat":52.096616611373186,"Long":23.74185071468671,"Source":"https ://rs dot gov.ru/en/kontakty/russian-houses-abroad/represents-with-map/","Russia_House_Handle_or_URL":"https ://t.me/s/rcnkbrest"}},
{"type":"Feature","id":11,"geometry":{"type":"Point","coordinates":[27.5487373190001,53.9046290060001]},"properties":{"OBJECTID":11,"Country":"Belarus","ISO_3_Digit_Code":"BLR","RU_House_Address":"Minsk, 19A Rakovskaya str.","Lat":53.904629006119144,"Long":27.548737319401017,"Source":"https ://rs dot gov.ru/en/kontakty/russian-houses-abroad/represents-with-map/","Russia_House_Handle_or_URL":"https ://t.me/s/naukaiculturaRossiivBelarusi"}},
{"type":"Feature","id":12,"geometry":{"type":"Point","coordinates":[23.8264182400001,53.679495741]},"properties":{"OBJECTID":12,"Country":"Belarus","ISO_3_Digit_Code":"BLR","RU_House_Address":"Grodno, Bolshaya Troitskaya str., 42","Lat":53.679495741326285,"Long":23.82641824,"Source":"https ://rs dot gov.ru/en/kontakty/russian-houses-abroad/represents-with-map/","Russia_House_Handle_or_URL":"https ://t.me/s/russkiydomvgrodno"}},
{"type":"Feature","id":13,"geometry":{"type":"Point","coordinates":[4.36889038900006,50.8538023660001]},"properties":{"OBJECTID":13,"Country":"Belgium","ISO_3_Digit_Code":"BEL","RU_House_Address":"Brussels, Meridien Street, 21","Lat":50.85380236571119,"Long":4.368890389071863,"Source":"https ://rs dot gov.ru/en/kontakty/russian-houses-abroad/represents-with-map/","Russia_House_Handle_or_URL":"https ://t.me/s/rushousebrussels"}},
{"type":"Feature","id":14,"geometry":{"type":"Point","coordinates":[18.4100837420001,43.8513451050002]},"properties":{"OBJECTID":14,"Country":"Bosnia and Herzegovina Sarajevo","ISO_3_Digit_Code":"BIH","RU_House_Address":"Urijan Dedina 93 71000 Sarajevo","Lat":43.851345105454314,"Long":18.410083742470583,"Source":"https ://rs dot gov.ru/en/kontakty/russian-houses-abroad/represents-with-map/","Russia_House_Handle_or_URL":null}},
{"type":"Feature","id":15,"geometry":{"type":"Point","coordinates":[-47.875256904,-15.8045495809998]},"properties":{"OBJECTID":15,"Country":"Brazil","ISO_3_Digit_Code":"BRA","RU_House_Address":"Brasilia, Avenida das Nacoes, Setor das Embaixadas Sul, Quadra 801, Lote A (Embassy of Russia)","Lat":-15.804549580586793,"Long":-47.87525690438019,"Source":"https ://rs dot gov.ru/en/kontakty/russian-houses-abroad/represents-with-map/","Russia_House_Handle_or_URL":"https ://t.me/s/embaixadarussa"}},
{"type":"Feature","id":16,"geometry":{"type":"Point","coordinates":[-46.699270079,-23.5842747299998]},"properties":{"OBJECTID":16,"Country":"Brazil","ISO_3_Digit_Code":"BRA","RU_House_Address":"Sao Paulo, Avenida Jandira, 185, apartment 114B (Consulate General of Russia)","Lat":-23.584274729756455,"Long":-46.69927007855133,"Source":"https ://rs dot gov.ru/en/kontakty/russian-houses-abroad/represents-with-map/","Russia_House_Handle_or_URL":"https ://telegram.me/consrio"}},
{"type":"Feature","id":17,"geometry":{"type":"Point","coordinates":[23.3401958800001,42.6933375420003]},"properties":{"OBJECTID":17,"Country":"Bulgaria","ISO_3_Digit_Code":"BGR","RU_House_Address":"Sofia, Shipka Street, 34","Lat":42.693337541826,"Long":23.34019588,"Source":"https ://rs dot gov.ru/en/kontakty/russian-houses-abroad/represents-with-map/","Russia_House_Handle_or_URL":"https ://t.me/s/RKIC_Sofia"}},
{"type":"Feature","id":18,"geometry":{"type":"Point","coordinates":[104.925973706,11.5625124609998]},"properties":{"OBJECTID":18,"Country":"Cambodia","ISO_3_Digit_Code":"KHM","RU_House_Address":"Phnom Penh, Norodom Boulevard, 103","Lat":11.562512461025653,"Long":104.92597370571087,"Source":"https ://rs dot gov.ru/en/kontakty/russian-houses-abroad/represents-with-map/","Russia_House_Handle_or_URL":"https ://t.me/s/RussianhouseinCambodia"}},
{"type":"Feature","id":19,"geometry":{"type":"Point","coordinates":[-70.6618214459999,-33.4475973889999]},"properties":{"OBJECTID":19,"Country":"Chile","ISO_3_Digit_Code":"CHL","RU_House_Address":"Santiago, Ehercito Street, 57","Lat":-33.44759738890095,"Long":-70.66182144607974,"Source":"https ://rs dot gov.ru/en/kontakty/russian-houses-abroad/represents-with-map/","Russia_House_Handle_or_URL":"https ://t.me/s/CasaDeRusiaenChile"}},
{"type":"Feature","id":20,"geometry":{"type":"Point","coordinates":[116.4150488,39.9858259999999]},"properties":{"OBJECTID":20,"Country":"China","ISO_3_Digit_Code":"CHN","RU_House_Address":"Beijing, Chaoyang District, Xiaoguan, st. Dongzhimennei, 56, building C","Lat":39.985826,"Long":116.4150488,"Source":"https ://rs dot gov.ru/en/kontakty/russian-houses-abroad/represents-with-map/","Russia_House_Handle_or_URL":"https ://t.me/s/RDBeijing"}},
{"type":"Feature","id":21,"geometry":{"type":"Point","coordinates":[15.28923151,-4.27077544599989]},"properties":{"OBJECTID":21,"Country":"Congo","ISO_3_Digit_Code":"COG","RU_House_Address":"Brazzaville, Centerville, 26 Amilcara Cabral Avenue, PO Box 2021","Lat":-4.270775446275243,"Long":15.28923150978731,"Source":"https ://rs dot gov.ru/en/kontakty/russian-houses-abroad/represents-with-map/","Russia_House_Handle_or_URL":null}},
{"type":"Feature","id":22,"geometry":{"type":"Point","coordinates":[-82.4357334179999,23.1126657589998]},"properties":{"OBJECTID":22,"Country":"Cuba","ISO_3_Digit_Code":"CUB","RU_House_Address":"Havana, Miramar, 5 avenida, N. 6402, between streets 62 and 66 (Embassy of Russia)","Lat":23.112665759060462,"Long":-82.43573341784789,"Source":"https ://rs dot gov.ru/en/kontakty/russian-houses-abroad/represents-with-map/","Russia_House_Handle_or_URL":"https ://t.me/s/CasaRusaCuba"}},
{"type":"Feature","id":23,"geometry":{"type":"Point","coordinates":[33.36256581,35.1611387529999]},"properties":{"OBJECTID":23,"Country":"Cyprus","ISO_3_Digit_Code":"CYP","RU_House_Address":"Nicosia, st. Alasias, 16","Lat":35.161138753214274,"Long":33.36256580954683,"Source":"https ://rs dot gov.ru/en/kontakty/russian-houses-abroad/represents-with-map/","Russia_House_Handle_or_URL":"https ://t.me/s/roscentrecy"}},
{"type":"Feature","id":24,"geometry":{"type":"Point","coordinates":[14.4123454000001,50.1001992000003]},"properties":{"OBJECTID":24,"Country":"Czech Republic","ISO_3_Digit_Code":"CZE","RU_House_Address":"Prague 6, Bubenec, on Zatorets, 16","Lat":50.1001992,"Long":14.4123454,"Source":"https ://rs dot gov.ru/en/kontakty/russian-houses-abroad/represents-with-map/","Russia_House_Handle_or_URL":null}},
{"type":"Feature","id":25,"geometry":{"type":"Point","coordinates":[29.9099795200001,31.2009049110003]},"properties":{"OBJECTID":25,"Country":"Egypt","ISO_3_Digit_Code":"EGY","RU_House_Address":"Branch, Alexandria, Bab Sharqi District, El-Batalsa Street, Building 5","Lat":31.20090491109012,"Long":29.90997952,"Source":"https ://rs dot gov.ru/en/kontakty/russian-houses-abroad/represents-with-map/","Russia_House_Handle_or_URL":"https ://t.me/s/russian_house_alex"}},
{"type":"Feature","id":26,"geometry":{"type":"Point","coordinates":[31.214669198,30.0388449859999]},"properties":{"OBJECTID":26,"Country":"Egypt","ISO_3_Digit_Code":"EGY","RU_House_Address":"Cairo, Dokki District, Tahrir Street 127","Lat":30.038844985884598,"Long":31.214669198424062,"Source":"https ://rs dot gov.ru/en/kontakty/russian-houses-abroad/represents-with-map/","Russia_House_Handle_or_URL":"https ://t.me/s/russianhouseincairo"}},
{"type":"Feature","id":27,"geometry":{"type":"Point","coordinates":[38.7524315,9.03581189999983]},"properties":{"OBJECTID":27,"Country":"Ethiopia","ISO_3_Digit_Code":"ETH","RU_House_Address":"Addis Ababa, Arada Woreda 01 Street, 900","Lat":9.0358119,"Long":38.7524315,"Source":"https ://rs dot gov.ru/en/kontakty/russian-houses-abroad/represents-with-map/","Russia_House_Handle_or_URL":"https ://t.me/RCSCEthiopia"}},
{"type":"Feature","id":28,"geometry":{"type":"Point","coordinates":[24.9233937,60.1897197999998]},"properties":{"OBJECTID":28,"Country":"Finland","ISO_3_Digit_Code":"FIN","RU_House_Address":"Helsinki, Nurdensheldinkatu Street, 1","Lat":60.1897198,"Long":24.9233937,"Source":"https ://rs dot gov.ru/en/kontakty/russian-houses-abroad/represents-with-map/","Russia_House_Handle_or_URL":"https ://t.me/s/RusEmb_Fin"}},
{"type":"Feature","id":29,"geometry":{"type":"Point","coordinates":[2.28737806600003,48.8684310210001]},"properties":{"OBJECTID":29,"Country":"France","ISO_3_Digit_Code":"FRA","RU_House_Address":"Paris, Boissieres Street, 61","Lat":48.86843102095104,"Long":2.287378066,"Source":"https ://rs dot gov.ru/en/kontakty/russian-houses-abroad/represents-with-map/","Russia_House_Handle_or_URL":"https ://t.me/s/maisonrusseaparis"}},
{"type":"Feature","id":31,"geometry":{"type":"Point","coordinates":[23.7855700500001,38.0090410330002]},"properties":{"OBJECTID":31,"Country":"Greece","ISO_3_Digit_Code":"GRC","RU_House_Address":"Athens, Halandri, Tzavela Street, 7","Lat":38.00904103320642,"Long":23.78557005,"Source":"https ://rs dot gov.ru/en/kontakty/russian-houses-abroad/represents-with-map/","Russia_House_Handle_or_URL":"https ://t.me/s/RussianHouseAthens"}},
{"type":"Feature","id":32,"geometry":{"type":"Point","coordinates":[19.0747756000001,47.5132768460003]},"properties":{"OBJECTID":32,"Country":"Hungary","ISO_3_Digit_Code":"HUN","RU_House_Address":"Budapest, Andrassy Avenue 120","Lat":47.51327684596312,"Long":19.0747756,"Source":"https ://rs dot gov.ru/en/kontakty/russian-houses-abroad/represents-with-map/","Russia_House_Handle_or_URL":"https ://t.me/s/oroszhaz"}},
{"type":"Feature","id":33,"geometry":{"type":"Point","coordinates":[72.810519564,18.9727880039999]},"properties":{"OBJECTID":33,"Country":"India","ISO_3_Digit_Code":"IND","RU_House_Address":"Mumbai, Gopalrao Deshmukh (Marg), 31-A","Lat":18.97278800384427,"Long":72.81051956449308,"Source":"https ://rs dot gov.ru/en/kontakty/russian-houses-abroad/represents-with-map/","Russia_House_Handle_or_URL":"https ://t.me/rushousemumbai"}},
{"type":"Feature","id":34,"geometry":{"type":"Point","coordinates":[80.2562866800001,13.0458107299999]},"properties":{"OBJECTID":34,"Country":"India","ISO_3_Digit_Code":"IND","RU_House_Address":"Chennai, Kasturi Ranga Road, 74","Lat":13.045810729708185,"Long":80.25628668,"Source":"https ://rs dot gov.ru/en/kontakty/russian-houses-abroad/represents-with-map/","Russia_House_Handle_or_URL":"https ://t.me/russianhouse_chennai"}},
{"type":"Feature","id":35,"geometry":{"type":"Point","coordinates":[88.3525714420001,22.5420983199999]},"properties":{"OBJECTID":35,"Country":"India","ISO_3_Digit_Code":"IND","RU_House_Address":"Kolkata, Gorky Terrace, 3","Lat":22.542098320071773,"Long":88.35257144193554,"Source":"https ://rs dot gov.ru/en/kontakty/russian-houses-abroad/represents-with-map/","Russia_House_Handle_or_URL":"https ://t.me/russianhousekolkata"}},
{"type":"Feature","id":36,"geometry":{"type":"Point","coordinates":[77.227032454,28.6241779219998]},"properties":{"OBJECTID":36,"Country":"India","ISO_3_Digit_Code":"IND","RU_House_Address":"New Delhi, Firoz Shah Road, 24","Lat":28.62417792169915,"Long":77.22703245378062,"Source":"https ://rs dot gov.ru/en/kontakty/russian-houses-abroad/represents-with-map/","Russia_House_Handle_or_URL":"https ://t.me/russianhousenewdelhi"}},
{"type":"Feature","id":37,"geometry":{"type":"Point","coordinates":[106.835073049,-6.20072349600008]},"properties":{"OBJECTID":37,"Country":"Indonesia","ISO_3_Digit_Code":"IDN","RU_House_Address":"Jakarta, Diponegoro Street, House 12","Lat":-6.200723496466399,"Long":106.8350730489702,"Source":"https ://rs dot gov.ru/en/kontakty/russian-houses-abroad/represents-with-map/","Russia_House_Handle_or_URL":"https ://t.me/rumahrusia"}},
{"type":"Feature","id":38,"geometry":{"type":"Point","coordinates":[51.357911539,35.752811711]},"properties":{"OBJECTID":38,"Country":"Iran","ISO_3_Digit_Code":"IRN","RU_House_Address":"Tehran, Shahrake, Gharb district, Simae Iran st., Seventh st. Iane Mordad, 1816","Lat":35.752811711340456,"Long":51.35791153909276,"Source":"https ://rs dot gov.ru/en/kontakty/russian-houses-abroad/represents-with-map/","Russia_House_Handle_or_URL":"https ://t.me/russianembassytehran"}},
{"type":"Feature","id":39,"geometry":{"type":"Point","coordinates":[35.222108096,31.7829573559998]},"properties":{"OBJECTID":39,"Country":"Israel","ISO_3_Digit_Code":"ISR","RU_House_Address":"Jerusalem, Heleni-ha-Malka str., 13 (Sergievskoe farmstead)","Lat":31.782957355822134,"Long":35.22210809621382,"Source":"https ://rs dot gov.ru/en/kontakty/russian-houses-abroad/represents-with-map/","Russia_House_Handle_or_URL":"https ://t.me/ruscenter_news"}},
{"type":"Feature","id":40,"geometry":{"type":"Point","coordinates":[34.773840625,32.0659919299998]},"properties":{"OBJECTID":40,"Country":"Israel","ISO_3_Digit_Code":"ISR","RU_House_Address":"37 Montefiore St., Chagall's Matryoshka Russian Art Gallery","Lat":32.065991930382005,"Long":34.773840625059485,"Source":"https ://rs dot gov.ru/en/kontakty/russian-houses-abroad/represents-with-map/","Russia_House_Handle_or_URL":null}},
{"type":"Feature","id":41,"geometry":{"type":"Point","coordinates":[12.47489238,41.8941416839998]},"properties":{"OBJECTID":41,"Country":"Italy","ISO_3_Digit_Code":"ITA","RU_House_Address":"Rome, Piazza Benedetto Cairoli, 6","Lat":41.89414168437364,"Long":12.47489238,"Source":"https ://rs dot gov.ru/en/kontakty/russian-houses-abroad/represents-with-map/","Russia_House_Handle_or_URL":"https ://t.me/russkijdomrim"}},
{"type":"Feature","id":42,"geometry":{"type":"Point","coordinates":[139.7412326,35.65960333]},"properties":{"OBJECTID":42,"Country":"Japan","ISO_3_Digit_Code":"JPN","RU_House_Address":"Tokyo, Minatoku, Adzabu-Dai 2-1-1 (Embassy of the Russian Federation)","Lat":35.65960332954992,"Long":139.7412326,"Source":"https ://rs dot gov.ru/en/kontakty/russian-houses-abroad/represents-with-map/","Russia_House_Handle_or_URL":"https ://t.me/tokyo_rusdom"}},
{"type":"Feature","id":43,"geometry":{"type":"Point","coordinates":[35.9239625,31.9515693999998]},"properties":{"OBJECTID":43,"Country":"Jordan","ISO_3_Digit_Code":"JOR","RU_House_Address":"Amman, Shahida Ismail Street, House 12","Lat":31.9515694,"Long":35.9239625,"Source":"https ://rs dot gov.ru/en/kontakty/russian-houses-abroad/represents-with-map/","Russia_House_Handle_or_URL":"https ://t.me/rushousejo"}},
{"type":"Feature","id":44,"geometry":{"type":"Point","coordinates":[76.893967849,43.228662556]},"properties":{"OBJECTID":44,"Country":"Kazakhstan","ISO_3_Digit_Code":"KAZ","RU_House_Address":"Almaty, Radostovtsa Street, 143","Lat":43.228662555788354,"Long":76.89396784897167,"Source":"https ://rs dot gov.ru/en/kontakty/russian-houses-abroad/represents-with-map/","Russia_House_Handle_or_URL":"https ://t.me/rsalmaty"}},
{"type":"Feature","id":45,"geometry":{"type":"Point","coordinates":[51.3817037370001,51.21260243]},"properties":{"OBJECTID":45,"Country":"Kazakhstan","ISO_3_Digit_Code":"KAZ","RU_House_Address":"Oral, Mukhita Street, 78, room 101","Lat":51.212602429857796,"Long":51.38170373705712,"Source":"https ://rs dot gov.ru/en/kontakty/russian-houses-abroad/represents-with-map/","Russia_House_Handle_or_URL":"https ://t.me/russkiydomuralsk"}},
{"type":"Feature","id":46,"geometry":{"type":"Point","coordinates":[71.4236739700001,51.1653246330002]},"properties":{"OBJECTID":46,"Country":"Kazakhstan","ISO_3_Digit_Code":"KAZ","RU_House_Address":"Astana, Kenesary Street, 39","Lat":51.16532463281085,"Long":71.4236739700995,"Source":"https ://rs dot gov.ru/en/kontakty/russian-houses-abroad/represents-with-map/","Russia_House_Handle_or_URL":"https ://t.me/rsgov_qazaqstan"}},
{"type":"Feature","id":47,"geometry":{"type":"Point","coordinates":[82.6304199970002,49.9464696850003]},"properties":{"OBJECTID":47,"Country":"Kazakhstan","ISO_3_Digit_Code":"KAZ","RU_House_Address":"Oskemen, M. Gorsky Street, 21, office 201a","Lat":49.94646968529183,"Long":82.63041999742231,"Source":"https ://rs dot gov.ru/en/kontakty/russian-houses-abroad/represents-with-map/","Russia_House_Handle_or_URL":"https ://t.me/rs_ukg"}},
{"type":"Feature","id":48,"geometry":{"type":"Point","coordinates":[126.971864451,37.56512614]},"properties":{"OBJECTID":48,"Country":"Korea, South","ISO_3_Digit_Code":"KOR","RU_House_Address":"Seoul, 34-16, Chun-dong, Chung-gu, 100-120 (Embassy of Russia)","Lat":37.56513345,"Long":126.9718588,"Source":"https ://rs dot gov.ru/en/kontakty/russian-houses-abroad/represents-with-map/","Russia_House_Handle_or_URL":"https ://t.me/rembskorea"}},
{"type":"Feature","id":49,"geometry":{"type":"Point","coordinates":[74.605149899,42.8659116849998]},"properties":{"OBJECTID":49,"Country":"Kyrgyzstan","ISO_3_Digit_Code":"KGZ","RU_House_Address":"Bishkek, Erkindik boulevard, 2/1","Lat":42.86591168506575,"Long":74.60514989921352,"Source":"https ://rs dot gov.ru/en/kontakty/russian-houses-abroad/represents-with-map/","Russia_House_Handle_or_URL":"https ://t.me/rushouse_bishkek"}},
{"type":"Feature","id":50,"geometry":{"type":"Point","coordinates":[72.805601,40.5270769999999]},"properties":{"OBJECTID":50,"Country":"Kyrgzstan","ISO_3_Digit_Code":"KGZ","RU_House_Address":"Osh, K. Bobulova Street, 72","Lat":40.527077,"Long":72.805601,"Source":"https ://rs dot gov.ru/en/kontakty/russian-houses-abroad/represents-with-map/","Russia_House_Handle_or_URL":"https ://t.me/rushouseosh"}},
{"type":"Feature","id":51,"geometry":{"type":"Point","coordinates":[102.6133707,17.9640988000002]},"properties":{"OBJECTID":51,"Country":"Laos","ISO_3_Digit_Code":"LAO","RU_House_Address":"Vientiane City, Saisettha District, Block 04, Ban Phonsaid, No. 60, st. 23 Singha","Lat":17.9640988,"Long":102.6133707,"Source":"https ://rs dot gov.ru/en/kontakty/russian-houses-abroad/represents-with-map/","Russia_House_Handle_or_URL":null}},
{"type":"Feature","id":52,"geometry":{"type":"Point","coordinates":[35.5025585000001,33.8892264999999]},"properties":{"OBJECTID":52,"Country":"Lebanon","ISO_3_Digit_Code":"LBN","RU_House_Address":"Beirut, 7883, Vardan, R. Karame Street","Lat":33.8892265,"Long":35.5025585,"Source":"https ://rs dot gov.ru/en/kontakty/russian-houses-abroad/represents-with-map/","Russia_House_Handle_or_URL":"https ://t.me/RCNK_Beirut"}},
{"type":"Feature","id":53,"geometry":{"type":"Point","coordinates":[6.12611961700003,49.605629858]},"properties":{"OBJECTID":53,"Country":"Luxembourg","ISO_3_Digit_Code":"LUX","RU_House_Address":"Luxembourg, Goethe Street, 32, 1637","Lat":49.605629857806115,"Long":6.1261196173590795,"Source":"https ://rs dot gov.ru/en/kontakty/russian-houses-abroad/represents-with-map/","Russia_House_Handle_or_URL":"https ://www.facebook.com/CCSR.Lux.Ru/"}},
{"type":"Feature","id":54,"geometry":{"type":"Point","coordinates":[101.737375,3.16102980000007]},"properties":{"OBJECTID":54,"Country":"Malaysia","ISO_3_Digit_Code":"MYS","RU_House_Address":"Kuala Lumpur, Jalan Ampang, Lorong Ampang 2, 205","Lat":3.1610298,"Long":101.737375,"Source":"https ://rs dot gov.ru/en/kontakty/russian-houses-abroad/represents-with-map/","Russia_House_Handle_or_URL":"https ://t.me/RussianHouseMalaysia"}},
{"type":"Feature","id":55,"geometry":{"type":"Point","coordinates":[14.5132038,35.8973281000001]},"properties":{"OBJECTID":55,"Country":"Malta","ISO_3_Digit_Code":"MLT","RU_House_Address":"Valletta, Merchants Street, 36","Lat":35.8973281,"Long":14.5132038,"Source":"https ://rs dot gov.ru/en/kontakty/russian-houses-abroad/represents-with-map/","Russia_House_Handle_or_URL":"https ://t.me/rcscmalta2022"}},
{"type":"Feature","id":56,"geometry":{"type":"Point","coordinates":[-99.1837997,19.4123453]},"properties":{"OBJECTID":56,"Country":"Mexico","ISO_3_Digit_Code":"MEX","RU_House_Address":"Mexico City, San Miguel Chapultapec district, Protasio Tagle/54 street (office extension 2)","Lat":19.4123453,"Long":-99.1837997,"Source":"https ://rs dot gov.ru/en/kontakty/russian-houses-abroad/represents-with-map/","Russia_House_Handle_or_URL":null}},
{"type":"Feature","id":57,"geometry":{"type":"Point","coordinates":[106.9177016,47.9184675999998]},"properties":{"OBJECTID":57,"Country":"Mongolia","ISO_3_Digit_Code":"MNG","RU_House_Address":"Ulaanbaatar, 12 microdistrict, Tokyo Street, 39","Lat":47.9184676,"Long":106.9177016,"Source":"https ://rs dot gov.ru/en/kontakty/russian-houses-abroad/represents-with-map/","Russia_House_Handle_or_URL":"https ://t.me/RussianhouseMongolia"}},
{"type":"Feature","id":58,"geometry":{"type":"Point","coordinates":[-6.84339722899995,34.0117379210002]},"properties":{"OBJECTID":58,"Country":"Morocco","ISO_3_Digit_Code":"MAR","RU_House_Address":"Rabat, Annasr Avenue, 12","Lat":34.011737921335516,"Long":-6.843397229362546,"Source":"https ://rs dot gov.ru/en/kontakty/russian-houses-abroad/represents-with-map/","Russia_House_Handle_or_URL":"https ://t.me/maisonrussearabat"}},
{"type":"Feature","id":59,"geometry":{"type":"Point","coordinates":[85.3251763000001,27.7107567]},"properties":{"OBJECTID":59,"Country":"Nepal","ISO_3_Digit_Code":"NPL","RU_House_Address":"PO Box 1433, Kamal Pokhari, Kathmandu","Lat":27.7107567,"Long":85.3251763,"Source":"https ://rs dot gov.ru/en/kontakty/russian-houses-abroad/represents-with-map/","Russia_House_Handle_or_URL":"https ://t.me/nepalforeva"}},
{"type":"Feature","id":60,"geometry":{"type":"Point","coordinates":[-86.231155545,12.0936804999999]},"properties":{"OBJECTID":60,"Country":"Nicaragua","ISO_3_Digit_Code":"NIC","RU_House_Address":"Managua 14199, Las Colinas district, 3rd stage of development (Embassy of Russia)","Lat":12.093680499716827,"Long":-86.23115554483729,"Source":"https ://rs dot gov.ru/en/kontakty/russian-houses-abroad/represents-with-map/","Russia_House_Handle_or_URL":"https: //t.me/casarusa"}},
{"type":"Feature","id":61,"geometry":{"type":"Point","coordinates":[67.0207055000001,24.8546842000002]},"properties":{"OBJECTID":61,"Country":"Pakistan","ISO_3_Digit_Code":"PAK","RU_House_Address":"Karachi, P.I.C.H.S., 43/4/N, Block-6","Lat":24.8546842,"Long":67.0207055,"Source":"https ://rs dot gov.ru/en/kontakty/russian-houses-abroad/represents-with-map/","Russia_House_Handle_or_URL":null}},
{"type":"Feature","id":62,"geometry":{"type":"Point","coordinates":[35.2178613340001,31.7037437980001]},"properties":{"OBJECTID":62,"Country":"Palestine","ISO_3_Digit_Code":"PSE","RU_House_Address":"Dheshi microdistrict, Jabal Moorer (25095), site No. 2","Lat":31.703743797835834,"Long":35.21786133384404,"Source":"https ://rs dot gov.ru/en/kontakty/russian-houses-abroad/represents-with-map/","Russia_House_Handle_or_URL":"https ://t.me/russianhousepalestine"}},
{"type":"Feature","id":63,"geometry":{"type":"Point","coordinates":[-77.0424072,-12.0806068000002]},"properties":{"OBJECTID":63,"Country":"Peru","ISO_3_Digit_Code":"PER","RU_House_Address":"Lima, Salaveri Street, 774","Lat":-12.0806068,"Long":-77.0424072,"Source":"https ://rs dot gov.ru/en/kontakty/russian-houses-abroad/represents-with-map/","Russia_House_Handle_or_URL":null}},
{"type":"Feature","id":64,"geometry":{"type":"Point","coordinates":[-9.13884242499996,38.7346106170002]},"properties":{"OBJECTID":64,"Country":"Portugal","ISO_3_Digit_Code":"PRT","RU_House_Address":"Lisbon, Avenida Duc D'Avila, 185, 6C, 1050-082 (Embassy of Russia)","Lat":38.73461061651693,"Long":-9.138842425,"Source":"https ://rs dot gov.ru/en/kontakty/russian-houses-abroad/represents-with-map/","Russia_House_Handle_or_URL":"https ://t.me/EmbaixadaRusPT"}},
{"type":"Feature","id":65,"geometry":{"type":"Point","coordinates":[20.460918,44.8095648569998]},"properties":{"OBJECTID":65,"Country":"Serbia","ISO_3_Digit_Code":"SRB","RU_House_Address":"Belgrade, Queen Natalia Street, 33","Lat":44.80956485726533,"Long":20.460918,"Source":"https ://rs dot gov.ru/en/kontakty/russian-houses-abroad/represents-with-map/","Russia_House_Handle_or_URL":"https ://t.me/s/russkydombelgrad"}},
{"type":"Feature","id":66,"geometry":{"type":"Point","coordinates":[103.818186,1.31404850000031]},"properties":{"OBJECTID":66,"Country":"Singapore","ISO_3_Digit_Code":"SGP","RU_House_Address":"Singapore, Nassim Road Street, 51 (Embassy of Russia)","Lat":1.3140485,"Long":103.818186,"Source":"https ://rs dot gov.ru/en/kontakty/russian-houses-abroad/represents-with-map/","Russia_House_Handle_or_URL":"https ://t.me/RusEmbSG"}},
{"type":"Feature","id":67,"geometry":{"type":"Point","coordinates":[17.1052328000001,48.1512915000001]},"properties":{"OBJECTID":67,"Country":"Slovakia","ISO_3_Digit_Code":"SVK","RU_House_Address":"Bratislava, Frana Krala 2","Lat":48.1512915,"Long":17.1052328,"Source":"https ://rs dot gov.ru/en/kontakty/russian-houses-abroad/represents-with-map/","Russia_House_Handle_or_URL":"https ://www.instagram.com/rcvk.sk/"}},
{"type":"Feature","id":68,"geometry":{"type":"Point","coordinates":[28.2475744000001,-25.7614801000003]},"properties":{"OBJECTID":68,"Country":"South Africa","ISO_3_Digit_Code":"ZAF","RU_House_Address":"Pretoria, Brooks Street, 316, Manlo Park (Embassy of the Russian Federation)","Lat":-25.7614801,"Long":28.2475744,"Source":"https ://rs dot gov.ru/en/kontakty/russian-houses-abroad/represents-with-map/","Russia_House_Handle_or_URL":"https ://t.me/RussianEmbassyZA"}},
{"type":"Feature","id":69,"geometry":{"type":"Point","coordinates":[43.9700211,42.2256645]},"properties":{"OBJECTID":69,"Country":"South Ossetia","ISO_3_Digit_Code":"GEO","RU_House_Address":"Tskhinval, Ostrovsky Street (I. Plieva Street), 17","Lat":42.2256645,"Long":43.9700211,"Source":"https ://rs dot gov.ru/en/kontakty/russian-houses-abroad/represents-with-map/","Russia_House_Handle_or_URL":"https ://t.me/ossrsgov"}},
{"type":"Feature","id":70,"geometry":{"type":"Point","coordinates":[-3.69114649999995,40.4199733000001]},"properties":{"OBJECTID":70,"Country":"Spain","ISO_3_Digit_Code":"ESP","RU_House_Address":"Madrid, Alcala Street, 61","Lat":40.4199733,"Long":-3.6911465,"Source":"https ://rs dot gov.ru/en/kontakty/russian-houses-abroad/represents-with-map/","Russia_House_Handle_or_URL":"https ://t.me/casarusa_madridru"}},
{"type":"Feature","id":71,"geometry":{"type":"Point","coordinates":[79.8660284370001,6.9065905810001]},"properties":{"OBJECTID":71,"Country":"Sri Lanka","ISO_3_Digit_Code":"LKA","RU_House_Address":"Colombo-7, Independence Avenue Street, 10","Lat":6.908496147,"Long":79.8643259772314,"Source":"https ://rs dot gov.ru/en/kontakty/russian-houses-abroad/represents-with-map/","Russia_House_Handle_or_URL":"https ://t.me/russianhousecolombo1"}},
{"type":"Feature","id":72,"geometry":{"type":"Point","coordinates":[36.2959283440001,33.517986233]},"properties":{"OBJECTID":72,"Country":"Syria","ISO_3_Digit_Code":"SYR","RU_House_Address":"Damascus, Suk-Sanut district, st. May 29, PO Box 3097","Lat":33.51798623344653,"Long":36.29592834422391,"Source":"https ://rs dot gov.ru/en/kontakty/russian-houses-abroad/represents-with-map/","Russia_House_Handle_or_URL":"https ://t.me/russian_house_syria"}},
{"type":"Feature","id":73,"geometry":{"type":"Point","coordinates":[68.7955529,38.5615971999998]},"properties":{"OBJECTID":73,"Country":"Tajikistan","ISO_3_Digit_Code":"TJK","RU_House_Address":"Dushanbe, Shohmansur district, 1st Lahuti passage, 4","Lat":38.5615972,"Long":68.7955529,"Source":"https ://rs dot gov.ru/en/kontakty/russian-houses-abroad/represents-with-map/","Russia_House_Handle_or_URL":"https ://t.me/rsgov_tj"}},
{"type":"Feature","id":74,"geometry":{"type":"Point","coordinates":[69.6221990000001,40.2856251350001]},"properties":{"OBJECTID":74,"Country":"Tajikistan","ISO_3_Digit_Code":"TJK","RU_House_Address":"Khujand city, I. Somoni Street, 52","Lat":40.2856251354632,"Long":69.622199,"Source":"https ://rs dot gov.ru/en/kontakty/russian-houses-abroad/represents-with-map/","Russia_House_Handle_or_URL":"https ://t.me/rsgov_hodzhent"}},
{"type":"Feature","id":75,"geometry":{"type":"Point","coordinates":[39.2873069980001,-6.80167601599969]},"properties":{"OBJECTID":75,"Country":"Tanzania","ISO_3_Digit_Code":"TZA","RU_House_Address":"Dar es Salaam, Seaview Road Street, 2043/3","Lat":-6.801676015644482,"Long":39.287306998006635,"Source":"https ://rs dot gov.ru/en/kontakty/russian-houses-abroad/represents-with-map/","Russia_House_Handle_or_URL":"https ://t.me/rtcctanzania"}},
{"type":"Feature","id":76,"geometry":{"type":"Point","coordinates":[100.527682441,13.7296532329999]},"properties":{"OBJECTID":76,"Country":"Thailand","ISO_3_Digit_Code":"THA","RU_House_Address":"78 Sap Road, Surawong, Bangrak, Bangkok, 10500","Lat":13.729653233256869,"Long":100.52768244100314,"Source":"https ://rs dot gov.ru/en/kontakty/russian-houses-abroad/represents-with-map/","Russia_House_Handle_or_URL":"https ://t.me/Russian_House_Thailand"}},
{"type":"Feature","id":77,"geometry":{"type":"Point","coordinates":[10.17988179,36.8090885429998]},"properties":{"OBJECTID":77,"Country":"Tunisia","ISO_3_Digit_Code":"TUN","RU_House_Address":"Tunisia, Liberte Street, 34","Lat":36.80908854341162,"Long":10.17988179,"Source":"https ://rs dot gov.ru/en/kontakty/russian-houses-abroad/represents-with-map/","Russia_House_Handle_or_URL":"https ://t.me/maison_russe_en_tunisie"}},
{"type":"Feature","id":78,"geometry":{"type":"Point","coordinates":[32.8568499610001,39.8676098000003]},"properties":{"OBJECTID":78,"Country":"Turkey","ISO_3_Digit_Code":"TUR","RU_House_Address":"Ankara, Chankaya district, Hilal quarter, Rabindranath Tagore avenue, No. 68","Lat":39.867609799699565,"Long":32.85684996050053,"Source":"https ://rs dot gov.ru/en/kontakty/russian-houses-abroad/represents-with-map/","Russia_House_Handle_or_URL":"https ://t.me/ruseviankara"}},
{"type":"Feature","id":79,"geometry":{"type":"Point","coordinates":[58.3928660680001,37.9398976190001]},"properties":{"OBJECTID":79,"Country":"Turkmenistan","ISO_3_Digit_Code":"TKM","RU_House_Address":"Ashgabat, Saparmurat Turkmenbashi Ave., 11","Lat":37.93989761865898,"Long":58.39286606789962,"Source":"https ://rs dot gov.ru/en/kontakty/russian-houses-abroad/represents-with-map/","Russia_House_Handle_or_URL":"https ://t.me/asgabatrus"}},
{"type":"Feature","id":80,"geometry":{"type":"Point","coordinates":[54.3774014000001,24.4538352000003]},"properties":{"OBJECTID":80,"Country":"UAE, Abu Dhabi","ISO_3_Digit_Code":"ARE","RU_House_Address":"Abu Dhabi, PO Box 8211, Khalifa street., East Plots 65/67","Lat":24.4538352,"Long":54.3774014,"Source":"https ://rs dot gov.ru/en/kontakty/russian-houses-abroad/represents-with-map/","Russia_House_Handle_or_URL":null}},
{"type":"Feature","id":82,"geometry":{"type":"Point","coordinates":[69.2581348,41.3035347]},"properties":{"OBJECTID":82,"Country":"Uzbekistan","ISO_3_Digit_Code":"UZB","RU_House_Address":"Tashkent, st. Yunus Rajabi 63","Lat":41.3035347,"Long":69.2581348,"Source":"https ://rs dot gov.ru/en/kontakty/russian-houses-abroad/represents-with-map/","Russia_House_Handle_or_URL":"https ://t.me/uzbekistan_rs_gov"}},
{"type":"Feature","id":83,"geometry":{"type":"Point","coordinates":[-66.865372812,10.4814429170002]},"properties":{"OBJECTID":83,"Country":"Venezuela","ISO_3_Digit_Code":"VEN","RU_House_Address":"Caracas, Quinta Soyuza, Las Lomas Street, Las Mercedes District (Embassy of Russia)","Lat":10.481442917261818,"Long":-66.86537281246791,"Source":"https ://rs dot gov.ru/en/kontakty/russian-houses-abroad/represents-with-map/","Russia_House_Handle_or_URL":"https ://t.me/CasaRusaenCaracas"}},
{"type":"Feature","id":84,"geometry":{"type":"Point","coordinates":[105.813254347,21.0300356360002]},"properties":{"OBJECTID":84,"Country":"Vietnam","ISO_3_Digit_Code":"VNM","RU_House_Address":"Hanoi, Badinh District, Kimma Street, Building 501","Lat":21.030035636418674,"Long":105.81325434739384,"Source":"https ://rs dot gov.ru/en/kontakty/russian-houses-abroad/represents-with-map/","Russia_House_Handle_or_URL":"https ://t.me/russianhouseinhanoi"}},
{"type":"Feature","id":85,"geometry":{"type":"Point","coordinates":[28.3105349,-15.42378382]},"properties":{"OBJECTID":85,"Country":"Zambia","ISO_3_Digit_Code":"ZMB","RU_House_Address":"Lusaka, Independence Avenue, House 3234, Box 30198","Lat":-15.423783819861152,"Long":28.3105349,"Source":"https ://rs dot gov.ru/en/kontakty/russian-houses-abroad/represents-with-map/","Russia_House_Handle_or_URL":"https ://t.me/russianhouseinzambia"}}
]}
