{"type":"FeatureCollection","crs":{"type":"name","properties":{"name":"EPSG:4326"}},"features":[
{"type":"Feature","id":1,"geometry":{"type":"Polygon","coordinates":[[[51.7445312497174,46.9337402347239],[51.9451171873084,46.8948730467537],[52.0111328124293,46.9019042972453],[52.0855468751882,46.8395996094344],[52.1382812502796,46.8286132808784],[52.1887695316887,46.8395019529531],[52.3403320314981,46.8947753902721],[52.3848632810157,46.9221191403862],[52.4203125002218,46.9636718748573],[52.4832031251242,46.9906738277351],[52.6776367187595,46.9571289058741],[52.9160156248213,46.9543945315823],[53.0345703120703,46.8929199216172],[53.069433594185,46.8560546874738],[53.137500000025,46.7420410153806],[53.1702148440399,46.6690429684582],[53.1324218746698,46.608349609447],[53.0785156253959,46.5474609374725],[53.0639648438026,46.4752929683959],[53.1089843748291,46.4140625000843],[53.1352539063428,46.1916503905531],[53.041601562562,45.9678710938758],[52.8874999996254,45.7795410155057],[52.7738281247682,45.5727539061678],[52.8374999997252,45.4967285155085],[53.0857421870524,45.4073730470287],[53.2003906249274,45.331982422151],[53.0789062504233,45.3075195315015],[52.9107421874021,45.3197265629307],[52.7719726561133,45.3435058591083],[52.5310546878237,45.3986328121549],[52.4267578127229,45.4046386718371],[52.0487304688361,45.3883789058619],[51.7326171877331,45.3994628908998],[51.5396484377253,45.3428710933266],[51.4157226565754,45.3578613277381],[51.3333984376879,45.2795898433968],[51.2940429691077,45.2297851564597],[51.2499023437182,45.1216796875674],[51.1537109377097,45.0402343752165],[51.0403320313981,44.9803222653602],[51.0093749995567,44.9218261722401],[51.020703125349,44.8540039062553],[51.057910155829,44.8115722652478],[51.2181640627214,44.7089843754289],[51.3102539063928,44.6187500004124],[51.3663085937666,44.5998535157272],[51.4310546873241,44.6019531251368],[51.4937500001624,44.5775390622777],[51.5435546870992,44.5310058589334],[51.376660156541,44.5412109374347],[51.3107421879017,44.5324218747698],[51.1771484375504,44.501367187346],[51.1107421874022,44.5078124998473],[51.0488281246182,44.530468749633],[50.8603515628743,44.6287597659504],[50.652441406246,44.6333496097969],[50.4094726563381,44.6240234378316],[50.2974609371725,44.5815429690327],[50.2645507810937,44.5265625002591],[50.2529296876549,44.4615234372567],[50.2525390626277,44.406494140692],[50.2755859374412,44.3551269527469],[50.3311523433061,44.3254882811595],[50.4717773441491,44.2947753909713],[50.6849609372975,44.2650878906937],[50.782617187833,44.228027343587],[50.830761719078,44.1927734373441],[50.9398437500891,43.9585449223105],[51.0648437498392,43.7501464841729],[51.1396484376253,43.6487792972268],[51.2389648438525,43.5767089846319],[51.2741210936136,43.5329101564785],[51.3017578122732,43.4823730472783],[51.313867187221,43.4208496095221],[51.3133789066113,43.3556640622467],[51.2923828125168,43.2307128902877],[51.2954101562537,43.1741210936136],[51.3478515627995,43.1673828125668],[51.5140624997845,43.1705078127851],[51.6160156247214,43.1584472656289],[51.7003906252273,43.1040527339468],[51.7851562498611,43.0043457026921],[51.8110351563474,42.9544433592736],[51.8441406253896,42.9104492190561],[51.898242187627,42.8696289059494],[51.9607421875019,42.8505859378907],[52.0185546879485,42.8605468747385],[52.0755859374411,42.8797851566596],[52.1836914063334,42.8687500003125],[52.2730468748135,42.7998046879362],[52.3244140627587,42.8161621094936],[52.4342773438244,42.8244628906498],[52.4939453129259,42.820263671831],[52.5500000002999,42.8054687503828],[52.5965820314357,42.760156249911],[52.6384765622436,42.5556640629461],[52.6183593746855,42.4282226565506],[52.5732421871772,42.3308593745602],[52.5171874998034,42.237158202989],[52.4621093754473,42.1006347653819],[52.4585937502015,42.0483398440088],[52.4675781249306,41.8858886721247],[52.4938476564443,41.7803710941509],[52.6093749999562,41.5294433594233],[52.7472656247089,41.3654296874304],[52.8255859377408,41.2308593749601],[52.8503906247277,41.2002929690455],[52.8618164061024,41.2100585938293],[52.8301757815872,41.341894531108],[52.8822265622061,41.6136718747572],[52.8834960937697,41.6525390627274],[52.8148437499391,41.7118164059022],[52.9052734379189,41.89575195339],[52.9700195314762,41.9762207027233],[53.1083007812561,42.0700683594673],[53.1641601565661,42.0937988278538],[53.2849609374974,42.081835937179],[53.4958984378627,42.1201660158491],[53.6249023434685,42.1363769531341],[53.7523437498642,42.1293945313324],[53.8046874999282,42.1176269527216],[53.8464843751539,42.0911621091442],[53.9538085939915,41.8684570310673],[53.9952148441898,41.7725585936043],[54.039843750189,41.6433593750351],[54.0948242189626,41.519384765195],[54.1810546872241,41.4315917968241],[54.2845703122701,41.3637207030479],[54.592187500153,41.1935546870991],[54.6714843753037,41.1221679689763],[54.7037109378096,41.0711425782675],[54.7179687499579,41.012988281484],[54.7232421873771,40.9512695316636],[54.7100585938291,40.891113281053],[54.685058593879,40.8730468751131],[54.6570312501922,40.8583496092473],[54.5470703126448,40.8322753906967],[54.3744140622593,40.8713867185224],[54.3194335934856,40.83457031217],[54.3362304687612,40.7649414062209],[54.3773437504138,40.6932617186536],[54.3298828127418,40.6887695312891],[54.2833007816059,40.6937011714721],[54.1929687501077,40.7204101558038],[54.0888671870711,40.7070800779834],[53.8700195314763,40.6486816404455],[53.763769531239,40.6656738277852],[53.6937500002624,40.7464355465634],[53.6152343751663,40.818505859158],[53.520312499822,40.8310546878235],[53.4236328123045,40.792773437844],[53.3329101566785,40.7827148436154],[53.1919921872897,40.809472656638],[53.1452148440898,40.8249511716593],[53.0595703129196,40.8897460939071],[52.9976562501358,40.9598632813653],[52.9434570314169,41.0380859379158],[52.889257812698,40.8634765623935],[52.8499023441179,40.6856445310702],[52.7847656246339,40.5467285155085],[52.7336914061336,40.3987304687364],[52.7444335939352,40.2197753910212],[52.8046875001281,40.0540039059556],[52.898242187427,39.9125000003748],[52.9648437496394,39.8338867187972],[53.0355468750883,39.7744140626592],[52.9521484376003,39.8954589843445],[52.9875000003248,39.987597655807],[53.1385742186254,39.9786621097688],[53.2885742183256,39.9580078129104],[53.4041992183193,39.9603515621748],[53.454296874701,39.9408691403985],[53.4873046872616,39.9093750001562],[53.458300781456,39.8312011722965],[53.4504882809095,39.7485351561726],[53.4722656250586,39.6687988282035],[53.533300781306,39.6417480466349],[53.5824218746698,39.6074218747197],[53.6031250002186,39.5469726564628],[53.4973632814903,39.5333007814061],[53.3896484376253,39.5364257816244],[53.3049804685738,39.5570800784828],[53.2356445311703,39.6085449220107],[53.1248046870867,39.4320800778336],[53.1240234379314,39.3466796874179],[53.1566406245652,39.264990234312],[53.2033203121826,39.3167968750755],[53.2667968750759,39.3426269528719],[53.3363281254427,39.3408203129072],[53.4750000002499,39.3057128909373],[53.5394531252616,39.2740722655229],[53.6175781253303,39.2159667965304],[53.7045898436465,39.2095703127199],[53.709765624584,39.1534179688643],[53.7241210941133,39.1030761717283],[53.8149414062209,39.0180175785482],[53.8686523434309,38.949267578236],[53.8853515622248,38.8640624998844],[53.8737304687861,38.7419433595983],[53.8515624996098,38.6217773435499],[53.8400390626527,38.514941406221],[53.8518554690547,38.405908203001],[53.854101562737,38.2856445313701],[53.8251953125136,38.046923828072],[53.8235351559228,37.9279296871057],[53.8478515622998,37.6695800777585],[53.8978515621999,37.4135742185755],[53.9141601559666,37.343554687599],[53.9519531253365,37.1817382814966],[54.0171875004029,36.9524902344371],[54.023828124968,36.9013183594546],[54.0162109373849,36.8496582029637],[53.970117187758,36.8183105469942],[53.9062499998376,36.8126953123387],[53.7687500001125,36.8184570312672],[53.6794921872148,36.8531250004186],[53.827441406196,36.8812011718965],[53.9154296875301,36.9303222652603],[53.7676757815121,36.9303222652603],[53.3741210939134,36.868749999713],[52.1901367188346,36.621728515259],[51.762011718566,36.614501952703],[51.1185546879486,36.7425781248809],[50.9274414065957,36.8102050779021],[50.5332031254239,37.013671874957],[50.3378906252522,37.1491699217544],[50.2140624996846,37.3395996095343],[50.176269531214,37.3805175782238],[50.1304687501327,37.4071289060742],[49.9806640624965,37.4448730467537],[49.7269531247869,37.4805175780239],[49.4701171877581,37.4966796875179],[49.3724609372225,37.5199707030853],[49.1711914060586,37.6005859375911],[49.0809570310422,37.6675781248306],[49.0153320309485,37.7760742187502],[48.9599609371475,37.8901367186344],[48.9250976559322,38.0151367183851],[48.9013671875457,38.1436523433808],[48.8707031251491,38.3925292964897],[48.8687500000125,38.4354980467973],[48.8508789061366,38.815332031548],[48.8544921878643,38.8388183591802],[48.9261718754317,38.9617675782112],[48.9617187502203,39.0787597653512],[49.0134765622936,39.1339843748791],[49.111328124893,39.0847167972423],[49.1086914061835,39.0290527339968],[49.1209960940946,39.0039062497739],[49.1653320315481,39.0302734377691],[49.1998046877363,39.0726562500861],[49.2693359372038,39.2851562496611],[49.3211914066582,39.3289062500234],[49.3627929689204,39.3495605468819],[49.3673828127667,39.3983886717002],[49.3275390626777,39.5012207031732],[49.3244140624591,39.6083496090475],[49.4151367189844,39.8398437497892],[49.4773437503139,40.0872558592706],[49.551171875082,40.1941406252897],[49.669042968758,40.2490234375816],[49.7919921877893,40.2878906246527],[49.9188476561945,40.3164062498488],[50.1431640621717,40.3232421873769],[50.3659179689392,40.2794921879143],[50.3068359378284,40.4122070308299],[50.2480468752631,40.4617675779112],[50.182519531651,40.5047851560099],[50.1191406252397,40.5345214840793],[49.9906250002437,40.5768066408141],[49.8517578124732,40.5771972658415],[49.7759765625684,40.5839843746793],[49.7183593750851,40.6081054689923],[49.5561523439555,40.7163085934667],[49.4567382812467,40.7998535152275],[49.2264648433778,41.0262207028231],[49.1747070313045,41.116113281503],[49.1432617188533,41.217773437894],[49.1066406245653,41.3017089846821],[49.0508789066363,41.3739746093409],[48.82392578105,41.6295898434965],[48.6646484371756,41.7866210936884],[48.5728515629494,41.8444824219265],[48.4767578125232,41.9051269531467],[48.4263671875957,41.923974609141],[48.3837890623155,41.9534179686646],[48.3030273435371,42.0802246092784],[48.2286132816777,42.1809570313422],[48.0801757811874,42.3537109373098],[47.8223632811405,42.6134765624934],[47.7697265625308,42.6447753906716],[47.7277343752412,42.6807128904873],[47.7090820313107,42.8109374998655],[47.6348632815153,42.903466797255],[47.5290039063053,42.9671386722121],[47.4888671876707,42.9997558597454],[47.4631835941477,43.0350585937794],[47.5128906246027,43.2187499996128],[47.5116210939385,43.2707519533402],[47.4898437497893,43.3816894530059],[47.5089843752289,43.5097167964933],[47.567968749858,43.6849609377972],[47.6278320310234,43.8059570316917],[47.646484374954,43.8846191410604],[47.5625976559571,43.8346679689517],[47.4627929691203,43.5550292969644],[47.4291992185692,43.7798828122423],[47.3615234377564,43.9933593748352],[47.3070312495927,44.1031250003189],[47.2298828125417,44.1923828123167],[47.1226562501858,44.2616699219293],[47.0236328125043,44.3432617185533],[46.9157226565754,44.3871582031887],[46.7530273439368,44.420654297258],[46.7208984379127,44.4516601559916],[46.7072265628557,44.5033203124828],[46.716113281103,44.560693359211],[46.7552734376191,44.656542968883],[46.8412109373349,44.7182617187033],[46.9574218753193,44.7825683594421],[46.9836914059336,44.8255859375408],[47.0029296878548,44.8760742189498],[47.039257812698,44.8378906245528],[47.0837890622155,44.8169921878392],[47.1147460940571,44.9059570312922],[47.161523437257,44.9696289062493],[47.2214843749041,45.0242675777867],[47.2961914062085,45.1494628904999],[47.3512695314638,45.2177246093035],[47.3911132815528,45.2947753907719],[47.4130859377658,45.4210449220854],[47.4544921870648,45.4330566405513],[47.4886718747073,45.455078124556],[47.5145507811937,45.4909179687895],[47.5294921878143,45.5302246095784],[47.5242187503951,45.6017089841824],[47.4632812497299,45.679687499978],[47.4793945314325,45.6875976561068],[47.5083984372381,45.6741699218044],[47.5740234373319,45.6342773439246],[47.633300781406,45.5840332032699],[47.6498046872365,45.6567382816462],[47.7010742187002,45.6861816402704],[47.7639648436027,45.6659667971301],[47.830175781687,45.6630371089754],[48.0528320310734,45.7209960936948],[48.1591796877924,45.7370117189157],[48.2576171874833,45.7777832033321],[48.4870117188158,45.9348632813151],[48.5373046872615,45.9421386716622],[48.5890625002342,45.9348632813151],[48.6374023435434,45.9057617190281],[48.6896484371258,45.8888671872712],[48.7295898436964,45.8968261720902],[48.7496093747729,45.9205566404767],[48.7034179686643,45.9762207028231],[48.6873046878611,46.0287597658506],[48.6836914061335,46.0861816403702],[48.7425781251803,46.1007324219636],[48.8099609374474,46.1004882812092],[49.0795898438963,46.1892089848071],[49.1106445313201,46.2284667969052],[49.1254882814591,46.2817382812969],[49.245898437363,46.2916015625619],[49.2322265623061,46.3371582028889],[49.2056640622467,46.3856933591612],[49.2858398439337,46.4368164063519],[49.3621093753474,46.4102050785015],[49.3442382814715,46.4855468746883],[49.3474609372724,46.5191406252396],[49.4372070316792,46.5372558589706],[49.5843749997066,46.5452148437902],[49.631542968833,46.5675781250305],[49.760546875338,46.5714843753035],[49.8863281251429,46.5956542965085],[49.9998046879361,46.6342773437246],[50.1015624999094,46.6964355472625],[50.3062499998377,46.7949218747449],[50.4193359376035,46.8794921873148],[50.4722656247589,46.8829101560792],[50.5284179686143,46.8732910155679],[50.582910155879,46.8822753902968],[50.6798828128416,46.9387207026986],[50.7327148435154,46.9516601563914],[50.9200195310766,47.0406738285347],[51.1780273440867,47.1101562502108],[51.2908203124076,47.0973144529999],[51.6152343746668,47.029931640733],[51.6500976558821,47.0180664065394],[51.7445312497174,46.9337402347239]],[[47.9175781250305,45.6181640622218],[47.9203125002218,45.5620605470566],[47.9676757814122,45.4699707033853],[47.9830078121609,45.4882324222888],[47.9871093753974,45.5540527344462],[47.9471679688268,45.647070312445],[47.9175781250305,45.6181640622218]],[[52.554296874701,45.4739746092408],[52.5983398436089,45.4281738281595],[52.664843750239,45.4013183595547],[52.6824218746699,45.411816406602],[52.6929687504075,45.4607421879017],[52.6595703128196,45.5180664059397],[52.6088867184475,45.5280273436873],[52.554296874701,45.4739746092408]],[[50.3497070316544,45.0830078125608],[50.2949218749447,45.0759277342778],[50.256152343456,45.0224121091318],[50.2772460940321,44.9585937499016],[50.3117187502203,44.9720703128948],[50.3308593747605,44.9984374999909],[50.3497070316544,45.0830078125608]],[[50.1166015621125,45.0582519533653],[50.1098632810655,45.08193359396],[50.0593749996566,45.0667968752758],[50.0230468748135,45.0447265625809],[49.9951171876082,44.936962890925],[50.0953125003717,44.8306152342057],[50.148730469036,44.8264648440775],[50.1844726558884,44.8546386720373],[50.0981445311452,44.8815429684332],[50.038867187071,44.9491210936633],[50.0453124995724,45.0100097656384],[50.1166015621125,45.0582519533653]],[[53.0185546877486,39.0527343745916],[53.0458984378627,38.8972167967181],[53.1001953121639,38.7561523439554],[53.1095703128197,38.803076171428],[53.0551757811375,39.0379394531433],[53.0921874995535,39.0940917969986],[53.0533203124825,39.0965820314359],[53.0185546877486,39.0527343745916]]]},"properties":{"OBJECTID":1,"scalerank":0,"featurecla":"Ocean","min_zoom":0,"ORIG_FID":0,"Shape__Area":390665424981.5459,"Shape__Length":4968061.028009718}}
]}
